[{"OBJECT_NAME":"OSCAR 7 (AO-7)","OBJECT_ID":"1974-089B","EPOCH":"2026-04-05T18:59:32.813664","MEAN_MOTION":12.53696901,"ECCENTRICITY":0.0011868,"INCLINATION":101.9951,"RA_OF_ASC_NODE":108.2731,"ARG_OF_PERICENTER":269.169,"MEAN_ANOMALY":264.9465,"EPHEMERIS_TYPE":0,"CLASSIFICATION_TYPE":"U","NORAD_CAT_ID":7530,"ELEMENT_SET_NO":999,"REV_AT_EPOCH":35144,"BSTAR":-4.6027e-5,"MEAN_MOTION_DOT":-5.4e-7,"MEAN_MOTION_DDOT":0},{"OBJECT_NAME":"PHASE 3B (AO-10)","OBJECT_ID":"1983-058B","EPOCH":"2026-04-05T12:41:28.213728","MEAN_MOTION":2.05871341,"ECCENTRICITY":0.6036994,"INCLINATION":25.9038,"RA_OF_ASC_NODE":231.7114,"ARG_OF_PERICENTER":95.588,"MEAN_ANOMALY":331.7332,"EPHEMERIS_TYPE":0,"CLASSIFICATION_TYPE":"U","NORAD_CAT_ID":14129,"ELEMENT_SET_NO":999,"REV_AT_EPOCH":29399,"BSTAR":0,"MEAN_MOTION_DOT":1.42e-6,"MEAN_MOTION_DDOT":0},{"OBJECT_NAME":"UOSAT 2 (UO-11)","OBJECT_ID":"1984-021B","EPOCH":"2026-04-05T20:40:33.631968","MEAN_MOTION":14.90609713,"ECCENTRICITY":0.0009126,"INCLINATION":97.7997,"RA_OF_ASC_NODE":62.2824,"ARG_OF_PERICENTER":67.915,"MEAN_ANOMALY":292.3036,"EPHEMERIS_TYPE":0,"CLASSIFICATION_TYPE":"U","NORAD_CAT_ID":14781,"ELEMENT_SET_NO":999,"REV_AT_EPOCH":24635,"BSTAR":0.00023933,"MEAN_MOTION_DOT":2.289e-5,"MEAN_MOTION_DDOT":0},{"OBJECT_NAME":"LUSAT (LO-19)","OBJECT_ID":"1990-005G","EPOCH":"2026-04-05T14:55:42.483072","MEAN_MOTION":14.34100098,"ECCENTRICITY":0.0012538,"INCLINATION":98.8911,"RA_OF_ASC_NODE":115.4096,"ARG_OF_PERICENTER":61.9255,"MEAN_ANOMALY":298.3194,"EPHEMERIS_TYPE":0,"CLASSIFICATION_TYPE":"U","NORAD_CAT_ID":20442,"ELEMENT_SET_NO":999,"REV_AT_EPOCH":89199,"BSTAR":9.0065e-5,"MEAN_MOTION_DOT":2.05e-6,"MEAN_MOTION_DDOT":0},{"OBJECT_NAME":"EYESAT A (AO-27)","OBJECT_ID":"1993-061C","EPOCH":"2026-04-05T18:25:54.893280","MEAN_MOTION":14.30922771,"ECCENTRICITY":0.0007518,"INCLINATION":98.6929,"RA_OF_ASC_NODE":163.1912,"ARG_OF_PERICENTER":318.6258,"MEAN_ANOMALY":41.4355,"EPHEMERIS_TYPE":0,"CLASSIFICATION_TYPE":"U","NORAD_CAT_ID":22825,"ELEMENT_SET_NO":999,"REV_AT_EPOCH":69664,"BSTAR":8.0309e-5,"MEAN_MOTION_DOT":1.66e-6,"MEAN_MOTION_DDOT":0},{"OBJECT_NAME":"ITAMSAT (IO-26)","OBJECT_ID":"1993-061D","EPOCH":"2026-04-05T18:27:15.888960","MEAN_MOTION":14.31347711,"ECCENTRICITY":0.0007818,"INCLINATION":98.6878,"RA_OF_ASC_NODE":163.1024,"ARG_OF_PERICENTER":299.8916,"MEAN_ANOMALY":60.1489,"EPHEMERIS_TYPE":0,"CLASSIFICATION_TYPE":"U","NORAD_CAT_ID":22826,"ELEMENT_SET_NO":999,"REV_AT_EPOCH":69695,"BSTAR":8.4462e-5,"MEAN_MOTION_DOT":1.79e-6,"MEAN_MOTION_DDOT":0},{"OBJECT_NAME":"RADIO ROSTO (RS15)","OBJECT_ID":"1994-085A","EPOCH":"2026-04-05T20:01:30.572832","MEAN_MOTION":11.27583809,"ECCENTRICITY":0.0153706,"INCLINATION":64.817,"RA_OF_ASC_NODE":60.2274,"ARG_OF_PERICENTER":17.0042,"MEAN_ANOMALY":343.5954,"EPHEMERIS_TYPE":0,"CLASSIFICATION_TYPE":"U","NORAD_CAT_ID":23439,"ELEMENT_SET_NO":999,"REV_AT_EPOCH":28774,"BSTAR":-0.00020177,"MEAN_MOTION_DOT":-5.0e-7,"MEAN_MOTION_DDOT":0},{"OBJECT_NAME":"JAS-2 (FO-29)","OBJECT_ID":"1996-046B","EPOCH":"2026-04-05T13:23:42.746496","MEAN_MOTION":13.53270629,"ECCENTRICITY":0.0348876,"INCLINATION":98.5334,"RA_OF_ASC_NODE":314.338,"ARG_OF_PERICENTER":284.9629,"MEAN_ANOMALY":71.3141,"EPHEMERIS_TYPE":0,"CLASSIFICATION_TYPE":"U","NORAD_CAT_ID":24278,"ELEMENT_SET_NO":999,"REV_AT_EPOCH":46334,"BSTAR":4.9616e-5,"MEAN_MOTION_DOT":1.0e-7,"MEAN_MOTION_DDOT":0},{"OBJECT_NAME":"TECHSAT 1B (GO-32)","OBJECT_ID":"1998-043D","EPOCH":"2026-04-05T20:30:05.292288","MEAN_MOTION":14.24413894,"ECCENTRICITY":0.0002295,"INCLINATION":99.0053,"RA_OF_ASC_NODE":86.7978,"ARG_OF_PERICENTER":75.7964,"MEAN_ANOMALY":284.3469,"EPHEMERIS_TYPE":0,"CLASSIFICATION_TYPE":"U","NORAD_CAT_ID":25397,"ELEMENT_SET_NO":999,"REV_AT_EPOCH":44103,"BSTAR":6.5793e-5,"MEAN_MOTION_DOT":1.06e-6,"MEAN_MOTION_DDOT":0},{"OBJECT_NAME":"ISS (ZARYA)","OBJECT_ID":"1998-067A","EPOCH":"2026-04-05T19:28:26.281920","MEAN_MOTION":15.48791307,"ECCENTRICITY":0.0006355,"INCLINATION":51.6329,"RA_OF_ASC_NODE":298.2672,"ARG_OF_PERICENTER":276.3215,"MEAN_ANOMALY":83.7049,"EPHEMERIS_TYPE":0,"CLASSIFICATION_TYPE":"U","NORAD_CAT_ID":25544,"ELEMENT_SET_NO":999,"REV_AT_EPOCH":56053,"BSTAR":0.0001599,"MEAN_MOTION_DOT":8.309e-5,"MEAN_MOTION_DDOT":0},{"OBJECT_NAME":"PCSAT (NO-44)","OBJECT_ID":"2001-043C","EPOCH":"2026-04-05T09:06:44.454816","MEAN_MOTION":14.31926921,"ECCENTRICITY":0.00068181,"INCLINATION":67.0499,"RA_OF_ASC_NODE":72.5804,"ARG_OF_PERICENTER":264.5518,"MEAN_ANOMALY":95.4807,"EPHEMERIS_TYPE":0,"CLASSIFICATION_TYPE":"U","NORAD_CAT_ID":26931,"ELEMENT_SET_NO":999,"REV_AT_EPOCH":28002,"BSTAR":0.00012871607,"MEAN_MOTION_DOT":2.62e-6,"MEAN_MOTION_DDOT":0},{"OBJECT_NAME":"SAUDISAT 1C (SO-50)","OBJECT_ID":"2002-058C","EPOCH":"2026-04-05T20:44:03.854400","MEAN_MOTION":14.82891707,"ECCENTRICITY":0.0075482,"INCLINATION":64.5551,"RA_OF_ASC_NODE":352.7248,"ARG_OF_PERICENTER":275.6576,"MEAN_ANOMALY":83.5926,"EPHEMERIS_TYPE":0,"CLASSIFICATION_TYPE":"U","NORAD_CAT_ID":27607,"ELEMENT_SET_NO":999,"REV_AT_EPOCH":25373,"BSTAR":0.00020859,"MEAN_MOTION_DOT":1.625e-5,"MEAN_MOTION_DDOT":0},{"OBJECT_NAME":"CUTE-1 (CO-55)","OBJECT_ID":"2003-031E","EPOCH":"2026-04-05T18:01:15.453120","MEAN_MOTION":14.24290236,"ECCENTRICITY":0.0010312,"INCLINATION":98.677,"RA_OF_ASC_NODE":105.2145,"ARG_OF_PERICENTER":41.7667,"MEAN_ANOMALY":318.4298,"EPHEMERIS_TYPE":0,"CLASSIFICATION_TYPE":"U","NORAD_CAT_ID":27844,"ELEMENT_SET_NO":999,"REV_AT_EPOCH":18136,"BSTAR":0.00022481,"MEAN_MOTION_DOT":4.75e-6,"MEAN_MOTION_DDOT":0},{"OBJECT_NAME":"CUBESAT XI-IV (CO-57)","OBJECT_ID":"2003-031J","EPOCH":"2026-04-05T00:00:26.441856","MEAN_MOTION":14.23580899,"ECCENTRICITY":0.00104798,"INCLINATION":98.6802,"RA_OF_ASC_NODE":104.2449,"ARG_OF_PERICENTER":60.3929,"MEAN_ANOMALY":299.8292,"EPHEMERIS_TYPE":0,"CLASSIFICATION_TYPE":"U","NORAD_CAT_ID":27848,"ELEMENT_SET_NO":999,"REV_AT_EPOCH":18096,"BSTAR":0.00018383126,"MEAN_MOTION_DOT":3.75e-6,"MEAN_MOTION_DDOT":0},{"OBJECT_NAME":"MOZHAETS 4 (RS22)","OBJECT_ID":"2003-042A","EPOCH":"2026-04-05T21:37:54.611328","MEAN_MOTION":14.73340061,"ECCENTRICITY":0.0012178,"INCLINATION":98.3458,"RA_OF_ASC_NODE":278.2239,"ARG_OF_PERICENTER":133.6729,"MEAN_ANOMALY":2.8475,"EPHEMERIS_TYPE":0,"CLASSIFICATION_TYPE":"U","NORAD_CAT_ID":27939,"ELEMENT_SET_NO":999,"REV_AT_EPOCH":20490,"BSTAR":0.00044422,"MEAN_MOTION_DOT":2.825e-5,"MEAN_MOTION_DDOT":0},{"OBJECT_NAME":"CUBESAT XI-V","OBJECT_ID":"2005-043F","EPOCH":"2026-04-05T08:31:52.056768","MEAN_MOTION":14.72438139,"ECCENTRICITY":0.00153015,"INCLINATION":98.2887,"RA_OF_ASC_NODE":249.493,"ARG_OF_PERICENTER":78.6033,"MEAN_ANOMALY":281.6891,"EPHEMERIS_TYPE":0,"CLASSIFICATION_TYPE":"U","NORAD_CAT_ID":28895,"ELEMENT_SET_NO":999,"REV_AT_EPOCH":9103,"BSTAR":0.00041899906,"MEAN_MOTION_DOT":2.609e-5,"MEAN_MOTION_DDOT":0}]
