OSCAR 7 (AO-7)          
1 07530U 74089B   26095.79135201 -.00000054  00000+0 -46027-4 0  9996
2 07530 101.9951 108.2731 0011868 269.1690 264.9465 12.53696901351447
PHASE 3B (AO-10)        
1 14129U 83058B   26095.52879877  .00000142  00000+0  00000+0 0  9991
2 14129  25.9038 231.7114 6036994  95.5880 331.7332  2.05871341293992
UOSAT 2 (UO-11)         
1 14781U 84021B   26095.86150037  .00002289  00000+0  23933-3 0  9991
2 14781  97.7997  62.2824 0009126  67.9150 292.3036 14.90609713246356
LUSAT (LO-19)           
1 20442U 90005G   26095.62201948  .00000205  00000+0  90065-4 0  9990
2 20442  98.8911 115.4096 0012538  61.9255 298.3194 14.34100098891995
EYESAT A (AO-27)        
1 22825U 93061C   26095.76799645  .00000166  00000+0  80309-4 0  9999
2 22825  98.6929 163.1912 0007518 318.6258  41.4355 14.30922771696640
ITAMSAT (IO-26)         
1 22826U 93061D   26095.76893390  .00000179  00000+0  84462-4 0  9990
2 22826  98.6878 163.1024 0007818 299.8916  60.1489 14.31347711696958
RADIO ROSTO (RS15)      
1 23439U 94085A   26095.83438163 -.00000050  00000+0 -20177-3 0  9991
2 23439  64.8170  60.2274 0153706  17.0042 343.5954 11.27583809287741
JAS-2 (FO-29)           
1 24278U 96046B   26095.55813364  .00000010  00000+0  49616-4 0  9995
2 24278  98.5334 314.3380 0348876 284.9629  71.3141 13.53270629463340
TECHSAT 1B (GO-32)      
1 25397U 98043D   26095.85422792  .00000106  00000+0  65793-4 0  9991
2 25397  99.0053  86.7978 0002295  75.7964 284.3469 14.24413894441033
ISS (ZARYA)             
1 25544U 98067A   26095.81141530  .00008309  00000+0  15990-3 0  9991
2 25544  51.6329 298.2672 0006355 276.3215  83.7049 15.48791307560534
PCSAT (NO-44)           
1 26931U 01043C   26095.37968119  .00000262  00000+0  12872-3 0  9997
2 26931  67.0499  72.5804 0006818 264.5518  95.4807 14.31926921280021
SAUDISAT 1C (SO-50)     
1 27607U 02058C   26095.86393350  .00001625  00000+0  20859-3 0  9996
2 27607  64.5551 352.7248 0075482 275.6576  83.5926 14.82891707253735
CUTE-1 (CO-55)          
1 27844U 03031E   26095.75087330  .00000475  00000+0  22481-3 0  9992
2 27844  98.6770 105.2145 0010312  41.7667 318.4298 14.24290236181367
CUBESAT XI-IV (CO-57)   
1 27848U 03031J   26095.00030604  .00000375  00000+0  18383-3 0  9991
2 27848  98.6802 104.2449 0010479  60.3929 299.8292 14.23580899180962
MOZHAETS 4 (RS22)       
1 27939U 03042A   26095.90132652  .00002825  00000+0  44422-3 0  9994
2 27939  98.3458 278.2239 0012178 133.6729   2.8475 14.73340061204902
CUBESAT XI-V            
1 28895U 05043F   26095.35546362  .00002609  00000+0  41900-3 0  9993
2 28895  98.2887 249.4930 0015301  78.6033 281.6891 14.72438139 91034
